# From MPEC 2026-FC5
C/2002 O4 (Hoenig),h,10/05.6126/2002,73.1921,320.4041,105.8436,1.000291,0.757573,2000,9.5,4.0
# From MPEC 2026-FR0
C/2002 O6 (SWAN),e,58.4510,330.3158,78.7776,262.4394,0.0002318,0.99817285,0.0000,09/16.4436/2002,2000,g 10.0,4.0
# From MPEC 2026-FC5
C/2002 O7 (LINEAR),h,09/10.4543/2003,98.6584,12.7694,252.2101,1.000247,0.924780,2000,6.5,4.0
# From MPEC 2026-FC5
C/2002 P1 (NEAT),e,34.4981,310.8386,347.8688,451.6983,0.0001027,0.98540941,0.0000,11/09.3743/2001,2000,g  6.0,4.0
# From MPEC 2026-FR0
C/2002 Q2 (LINEAR),e,96.5986,154.5597,125.6032,56.07129,0.0023474,0.97636322,0.0000,08/13.6461/2002,2000,g 16.0,4.0
# From MPEC 2026-FC5
C/2002 Q5 (LINEAR),h,11/21.0904/2002,149.1288,34.3315,133.5753,1.001114,1.214465,2000,9.0,4.0
# From MPEC 2026-FC5
C/2002 R3 (LONEOS),h,06/16.0269/2003,161.1924,54.3361,45.2201,1.000842,3.897164,2000,8.0,4.0
# From MPEC 2026-FC5
C/2002 T7 (LINEAR),h,04/28.0900/2004,160.1698,95.9706,158.6122,1.000465,0.597630,2000,4.0,4.0
# From MPEC 2026-FC5
C/2002 U2 (LINEAR),e,59.2343,39.1299,95.4203,1533,0.0000164,0.99922967,0.0000,01/04.7235/2003,2000,g 13.0,4.0
# From MPEC 2026-FC5
C/2002 V1 (NEAT),e,79.9766,65.2326,152.0045,962.7549,0.0000330,0.99989775,0.0000,02/09.7716/2003,2000,g  8.0,4.0
# From MPEC 2026-FC5
C/2002 V2 (LINEAR),e,166.7685,20.1924,314.7720,2779,0.0000067,0.99752711,0.0000,05/01.3153/2003,2000,g  6.0,4.0
# From MPEC 2026-FR0
C/2002 VQ94 (LINEAR),e,70.5964,35.0227,99.8280,187.8608,0.0003828,0.96406642,2.8308,05/15.0/2026,2000,g  9.5,2.0
# From MPEC 2026-FC5
C/2002 X1 (LINEAR),e,164.2121,281.9136,207.4785,873.4656,0.0000382,0.99710891,0.0000,07/03.7628/2003,2000,g  8.0,4.0
# From MPEC 2026-FC5
C/2002 X5 (Kudo-Fujikawa),e,92.4080,119.0416,187.7503,2943,0.0000062,0.99993416,0.0000,01/28.5057/2003,2000,g  8.5,4.0
# From MPEC 2026-FC5
C/2002 Y1 (Juels-Holvorcem),e,103.6002,166.4796,129.0412,229.2900,0.0002839,0.99680369,0.0000,04/12.0471/2003,2000,g  6.5,4.0
# From MPEC 2026-FC5
C/2003 A2 (Gleason),e,8.0717,154.4359,346.6056,11061,0.0000008,0.99897225,0.0000,11/10.2258/2003,2000,g  3.5,4.0
# From MPEC 2026-FC5
C/2003 E1 (NEAT),e,33.4913,137.2470,103.7877,13.76868,0.0192915,0.76222997,157.2580,05/15.0/2026,2000,g 12.5,2.0
# From MPEC 2026-FC5
C/2003 F1 (LINEAR),e,70.1648,87.7833,121.0627,20.53999,0.0105877,0.80505720,88.5515,05/15.0/2026,2000,g  7.0,4.0
# From MPEC 2026-FC5
P/2003 F2 (NEAT),e,11.5524,358.9353,193.1511,6.558625,0.0586793,0.53535661,139.6333,05/15.0/2026,2000,g 16.5,2.0
# From MPEC 2026-FC5
C/2003 G1 (LINEAR),h,01/24.8217/2003,66.6185,246.2285,11.4540,1.001633,4.925662,2000,5.0,4.0
# From MPEC 2026-FR0
C/2003 G2 (LINEAR),e,96.0009,24.6470,190.6559,448.2593,0.0001039,0.99654081,0.0000,04/17.9833/2003,2000,g 16.0,4.0
# From MPEC 2026-FC5
C/2003 H1 (LINEAR),e,138.6166,19.0870,196.0572,1718,0.0000138,0.99870131,0.0000,02/11.1752/2004,2000,g  6.5,4.0
# From MPEC 2026-FC5
C/2003 H2 (LINEAR),e,73.9072,80.1466,155.0725,38.15354,0.0041822,0.94278583,35.1579,05/15.0/2026,2000,g 13.0,4.0
# From MPEC 2026-FC5
C/2003 H3 (NEAT),h,04/11.3249/2003,42.5231,269.5758,6.5867,1.000450,2.934349,2000,9.5,4.0
# From MPEC 2026-FC5
C/2003 J1 (NEAT),e,98.0013,122.1418,196.1622,562.1876,0.0000739,0.99086333,0.0000,10/11.1374/2003,2000,g  7.0,4.0
# From MPEC 2026-FR0
C/2003 K1 (Spacewatch),e,129.7000,250.5211,314.6714,40.11908,0.0038786,0.94848719,33.1252,05/15.0/2026,2000,g 12.5,4.0
# From MPEC 2026-FC5
C/2003 K4 (LINEAR),h,10/01.3281/2004,134.1775,18.7324,198.3948,1.000078,1.022989,2000,3.5,4.0
# From unp
P/2003 L1 (Scotti),e,9.0545,225.7652,355.1281,6.693765,0.0569113,0.25210692,121.3905,05/15.0/2026,2000,g  9.5,4.0
# From MPEC 2026-FC5
C/2003 L2 (LINEAR),e,82.0509,273.0920,119.8501,148.6117,0.0005440,0.98068427,0.0000,01/16.1620/2004,2000,g 10.0,4.0
# From MPEC 2026-FC5
C/2003 O1 (LINEAR),e,117.8983,347.5362,81.6276,21836,0.0000003,0.99968778,0.0000,03/26.2362/2004,2000,g  6.0,4.0
# From MPEC 2026-FC5
C/2003 R1 (LINEAR),e,149.1542,356.7688,302.7693,19.54431,0.0114071,0.89114538,95.3465,05/15.0/2026,2000,g 15.0,2.0
# From MPEC 2026-FC5
C/2003 S3 (LINEAR),h,03/28.2821/2003,151.4994,226.2703,154.5858,1.000769,8.191922,2000,5.5,4.0
# From MPEC 2026-FC5
C/2003 S4-A,e,40.7549,224.3356,155.5918,36.99096,0.0043809,0.89454745,35.1276,05/15.0/2026,2000,g 14.7,4.0
# From MPEC 2026-FC5
C/2003 S4-B,e,40.4406,224.3160,153.9566,40.10654,0.0038804,0.90361391,31.1463,05/15.0/2026,2000,g 14.8,4.0
# From MPEC 2026-FC5
C/2003 T2 (LINEAR),e,87.7961,238.1556,152.2862,1605,0.0000153,0.99887596,0.0000,11/12.8993/2003,2000,g 11.5,4.0
# From MPEC 2026-FC5
C/2003 T3 (Tabur),e,50.2823,346.9053,43.7905,1918,0.0000117,0.99923015,0.0000,05/06.1796/2004,2000,g  5.0,4.0
# From MPEC 2026-FC5
P/2003 T12 (SOHO),e,11.0142,174.5496,219.8307,2.584358,0.2372330,0.76996530,161.4134,05/15.0/2026,2000,g 17.0,4.0
# From MPEC 2026-FC5
C/2003 U1 (LINEAR),e,164.4797,323.1518,278.8057,22.59816,0.0091748,0.91951622,75.4976,05/15.0/2026,2000,g 14.5,4.0
# From MPEC 2026-FC5
C/2003 V1 (LINEAR),e,28.7866,25.6437,8.7878,475.9094,0.0000949,0.99624896,0.0000,03/18.6876/2003,2000,g  8.5,4.0
# From MPEC 2026-FC5
C/2003 W1 (LINEAR),e,78.1342,256.2496,113.3250,24.97298,0.0078977,0.93346377,64.9668,05/15.0/2026,2000,g 14.5,4.0
# From MPEC 2026-FC5
C/2003 WT42 (LINEAR),e,31.4737,48.5090,92.0973,5734,0.0000023,0.99910350,0.0000,04/16.2741/2006,2000,g 11.5,2.0
# From MPEC 2026-FC5
C/2004 B1 (LINEAR),h,02/10.1975/2006,113.8118,273.3508,328.0252,1.000923,1.587973,2000,10.5,2.0
# From MPEC 2026-FR0
C/2004 C1 (Larsen),e,28.5641,151.4809,317.0793,11.73449,0.0245193,0.62970911,207.1200,05/15.0/2026,2000,g 13.5,2.0
# From MPEC 2026-FC5
C/2004 D1 (NEAT),e,45.6820,62.3224,75.2383,3113,0.0000057,0.99841560,0.0000,02/16.8401/2006,2000,g 11.5,2.0
# From MPEC 2026-FC5
C/2004 DZ61 (Catalina-LINEAR),e,66.8965,172.9037,44.4118,45.03299,0.0032614,0.95513491,26.2128,05/15.0/2026,2000,g 15.5,2.0
# From MPEC 2026-FC5
C/2004 F2 (LINEAR),e,104.7304,248.8147,317.1909,144.6443,0.0005666,0.99022499,0.0000,12/27.4406/2003,2000,g 16.0,2.0
# From MPEC 2026-FC5
C/2004 F4 (Bradfield),e,62.3717,223.4310,332.4746,232.3154,0.0002783,0.99928620,0.0000,04/07.0265/2004,2000,g 10.0,4.0
# From MPEC 2026-FC5
P/2004 FY140 (LINEAR),e,2.1335,326.7743,241.9377,4.913668,0.0904889,0.16924684,358.8302,05/15.0/2026,2000,g 12.5,2.0
# From MPEC 2026-FC5
C/2004 H6 (SWAN),h,05/09.1532/2004,107.8288,317.9650,269.4249,1.000294,0.792366,2000,7.5,4.0
# From MPEC 2026-FC5
C/2004 HV60 (Spacewatch),e,92.6439,45.0670,147.8931,58.40986,0.0022079,0.94789108,18.0744,05/15.0/2026,2000,g 13.0,4.0
# From MPEC 2026-FC5
C/2004 K1 (Catalina),e,153.6811,326.7006,97.2058,1630,0.0000150,0.99794164,0.0000,07/04.9728/2005,2000,g  7.0,4.0
# From MPEC 2026-FR0
C/2004 K3 (LINEAR),e,111.4413,275.0379,60.2165,57.71003,0.0022482,0.98097627,0.0000,06/24.3110/2004,2000,g 19.0,4.0
# From MPEC 2026-FC5
C/2004 L1 (LINEAR),e,159.2306,65.9485,243.1994,675.8523,0.0000561,0.99698058,0.0000,03/19.0876/2005,2000,g 10.0,4.0
# From MPEC 2026-FC5
C/2004 L2 (LINEAR),e,62.2448,98.9499,257.6090,1101,0.0000270,0.99654368,0.0000,11/10.9434/2005,2000,g  7.0,4.0
# From MPEC 2026-FC5
C/2004 P1 (NEAT),h,07/27.0372/2003,28.6790,284.3124,16.7770,1.000902,6.071595,2000,7.0,4.0
# From MPEC 2026-FC5
C/2004 Q1 (Tucker),e,56.1801,22.0796,32.9288,173.7085,0.0004305,0.98826149,0.0000,12/15.5324/2004,2000,g  9.5,4.0
# From MPEC 2026-FC5
C/2004 Q2 (Machholz),e,39.2033,93.4222,19.2948,561.5801,0.0000741,0.99789973,0.0000,01/29.5375/2005,2000,g  5.5,4.0
# From MPEC 2026-FR0
C/2004 R2 (ASAS),h,09/26.2068/2004,63.6340,182.5280,5.3269,1.000254,0.113721,2000,11.5,4.0
# From MPEC 2026-FC5
P/2004 R3 (LINEAR-NEAT),e,12.7721,305.3194,36.7069,4.738150,0.0955632,0.25662687,163.2100,05/15.0/2026,2000,g 14.5,4.0
# From MPEC 2026-FC5
C/2004 RG113 (LINEAR),e,21.5200,8.2122,125.1395,335.6398,0.0001603,0.99435788,0.0000,03/07.6023/2005,2000,g 13.0,4.0
# From MPEC 2026-FC5
C/2004 T3 (SidingSpring),e,71.8235,50.3398,259.8696,19401,0.0000004,0.99954059,0.0000,04/02.1821/2003,2000,g  2.5,4.0
# From MPEC 2026-FC5
C/2004 U1 (LINEAR),e,130.9811,112.4762,20.1210,1105,0.0000268,0.99756990,0.0000,11/30.0009/2004,2000,g 11.0,4.0
# From MPC 75705
P/2004 V5 (LINEAR-Hill),e,19.3254,47.7273,87.1331,8.062542,0.0430523,0.45010793,340.7467,05/15.0/2026,2000,g  8.0,4.0
# From unp
P/2004 V5-A (LINEAR-Hill),e,19.3288,47.7543,87.0979,8.063388,0.0430455,0.45019270,340.7602,05/15.0/2026,2000,g  8.0,4.0
# From MPEC 2026-FC5
P/2004 V5-B,e,19.3290,47.7549,87.1045,8.063595,0.0430438,0.45020496,340.7125,05/15.0/2026,2000,g  8.0,4.0
# From MPEC 2026-FC5
C/2004 X2 (LINEAR),e,72.3386,307.0388,162.0514,746.4061,0.0000483,0.99495159,0.0000,08/25.0783/2004,2000,g 10.0,4.0
# From MPEC 2026-FC5
C/2004 X3 (LINEAR),h,06/08.7654/2005,81.2613,342.9974,201.9542,1.002393,4.389548,2000,8.5,4.0
# From MPEC 2026-FC5
C/2004 YJ35 (LINEAR),e,52.6126,327.7772,136.8605,1314,0.0000207,0.99866821,0.0000,03/08.0295/2005,2000,g 15.0,2.0
# From MPEC 2026-FC5
C/2005 A1-A,h,03/31.6460/2005,74.8988,356.1095,272.0376,1.000422,0.931748,2000,10.9,4.0
# From MPEC 2026-FC5
C/2005 B1 (Christensen),e,92.5302,195.6060,103.3833,5591,0.0000024,0.99941909,0.0000,02/11.4988/2006,2000,g  6.5,4.0
# From MPEC 2026-FC5
P/2005 E1 (Tubbiolo),e,4.2648,335.7246,193.7929,7.071028,0.0524180,0.37758500,50.5887,05/15.0/2026,2000,g 10.0,4.0
# From MPEC 2026-FC5
C/2005 E2 (McNaught),h,02/26.3747/2006,16.7880,347.7224,41.3769,1.004396,1.587901,2000,5.5,4.0
# From MPEC 2026-FC5
C/2005 EL173 (LONEOS),h,02/23.2272/2007,130.8145,344.9417,261.7566,1.000325,3.928999,2000,11.5,2.0
# From MPEC 2026-FC5
C/2005 G1 (LINEAR),e,108.2907,299.2929,113.6028,26861,0.0000002,0.99981578,0.0000,02/23.6674/2006,2000,g  8.0,4.0
# From MPEC 2026-FC5
C/2005 H1 (LINEAR),e,81.7116,71.6747,95.1600,44.34599,0.0033375,0.89287905,26.2483,05/15.0/2026,2000,g  8.0,4.0
# From MPEC 2026-FC5
C/2005 J2 (Catalina),e,150.7600,33.4880,199.6024,1575,0.0000158,0.99729332,0.0000,03/27.5877/2005,2000,g  9.0,4.0
# From MPEC 2026-FC5
